ONEWEB-0534             
1 55797U 23029B   26185.19917210  .00000141  00000+0  31373-3 0  9996
2 55797  87.9187 271.0788 0001986 102.1913 257.9443 13.20772662163391
ONEWEB-0556             
1 55798U 23029C   26185.20589803  .00000030  00000+0  41421-4 0  9995
2 55798  87.9184 271.0763 0001165  95.6321 264.4945 13.20769578163392
ONEWEB-0562             
1 55799U 23029D   26185.19244578  .00000157  00000+0  35329-3 0  9990
2 55799  87.9183 271.0601 0001688  75.6903 284.4418 13.20771956163397
ONEWEB-0563             
1 55800U 23029E   26185.18738604  .00000149  00000+0  33495-3 0  9993
2 55800  87.9185 271.0916 0001962 106.4707 253.6642 13.20773321163385
ONEWEB-0564             
1 55801U 23029F   26184.95339890  .00000041  00000+0  68705-4 0  9996
2 55801  87.9185 271.1115 0001911  88.4376 271.6976 13.20772241163361
ONEWEB-0638             
1 55802U 23029G   26185.21510628 -.00000751  00000+0 -20610-2 0  9998
2 55802  87.8964 286.3576 0001483  91.6111 268.5189 13.14497251161639
ONEWEB-0639             
1 55803U 23029H   26184.78741602  .00000079  00000+0  16474-3 0  9993
2 55803  87.9180 301.6691 0002141 128.1259 232.0067 13.19726021161097
ONEWEB-0640             
1 55804U 23029J   26185.22461042 -.00000093  00000+0 -28584-3 0  9994
2 55804  87.8963 286.3461 0001316 107.3136 252.8138 13.14502269161658
ONEWEB-0641             
1 55805U 23029K   26184.78268385  .00000073  00000+0  15003-3 0  9998
2 55805  87.9189 301.6608 0001970 105.6178 254.5172 13.19725910161109
ONEWEB-0642             
1 55806U 23029L   26184.77795677 -.00000006  00000+0 -47000-4 0  9998
2 55806  87.9182 301.6725 0002312 121.4265 238.7094 13.19725737161099
ONEWEB-0643             
1 55807U 23029M   26185.27060629  .00000356  00000+0  92677-3 0  9992
2 55807  87.8961 286.3243 0002468 114.4959 245.6429 13.14502416161633
ONEWEB-0644             
1 55808U 23029N   26185.07648404 -.00000040  00000+0 -13346-3 0  9992
2 55808  87.9184 301.6142 0002113 109.8756 250.2605 13.19725371161136
ONEWEB-0645             
1 55809U 23029P   26185.25022878  .00000087  00000+0  18376-3 0  9991
2 55809  87.9184 301.5767 0001744 115.0543 245.0771 13.19725810161157
ONEWEB-0646             
1 55810U 23029Q   26184.73688594  .00000011  00000+0 -59513-5 0  9996
2 55810  87.9184 301.6792 0002103 108.1788 251.9574 13.19726336161074
ONEWEB-0648             
1 55811U 23029R   26185.23888869 -.00000081  00000+0 -25302-3 0  9995
2 55811  87.8975 286.3060 0001934 127.7227 232.4078 13.14503245161637
ONEWEB-0649             
1 55812U 23029S   26184.76214959  .00000081  00000+0  17081-3 0  9999
2 55812  87.9183 301.6718 0001816 108.1546 251.9785 13.19725911161112
ONEWEB-0650             
1 55813U 23029T   26185.28812820  .00000140  00000+0  31664-3 0  9998
2 55813  87.9182 301.5697 0002178 116.9735 243.1621 13.19725585161159
ONEWEB-0652             
1 55814U 23029U   26184.99150256 -.00000079  00000+0 -24835-3 0  9999
2 55814  87.8972 286.3618 0002045  95.8106 264.3257 13.14501685161573
ONEWEB-0653             
1 55815U 23029V   26184.97563838  .00000146  00000+0  35833-3 0  9995
2 55815  87.8970 286.3630 0001915  98.3532 261.7814 13.14501321161603
ONEWEB-0654             
1 55816U 23029W   26184.97088078  .00000231  00000+0  58907-3 0  9996
2 55816  87.8970 286.3603 0001957  90.0249 270.1105 13.14501338161621
ONEWEB-0656             
1 55817U 23029X   26184.94663564 -.00000110  00000+0 -30169-3 0  9991
2 55817  87.9195 271.0904 0002065  87.2519 272.8851 13.20771694163367
ONEWEB-0657             
1 55818U 23029Y   26185.28340249  .00000121  00000+0  26985-3 0  9993
2 55818  87.9185 301.5692 0002554  91.7491 268.3934 13.19725747161166
ONEWEB-0658             
1 55819U 23029Z   26185.05121553  .00000061  00000+0  12116-3 0  9998
2 55819  87.9192 301.5924 0002101 111.3397 248.7960 13.19724801161144
ONEWEB-0660             
1 55820U 23029AA  26185.25314890  .00000183  00000+0  45810-3 0  9992
2 55820  87.8980 286.2990 0001723 107.2146 252.9172 13.14501880161649
ONEWEB-0661             
1 55821U 23029AB  26185.21193189  .00000088  00000+0  20289-3 0  9992
2 55821  87.8965 286.3490 0001672 103.1910 256.9407 13.14502101161626
ONEWEB-0662             
1 55822U 23029AC  26185.24681631  .00000025  00000+0  33733-4 0  9990
2 55822  87.8961 286.3479 0001752 107.1826 252.9496 13.14502451161676
ONEWEB-0663             
1 55823U 23029AD  26185.20636278  .00000025  00000+0  29162-4 0  9995
2 55823  87.9196 271.1103 0001897 112.0467 248.0868 13.20870744163390
ONEWEB-0664             
1 55824U 23029AE  26184.78168377  .00000021  00000+0  20528-4 0  9991
2 55824  87.9183 271.1741 0001564  94.9617 265.1695 13.20771438163333
ONEWEB-0665             
1 55825U 23029AF  26185.28487668  .00000139  00000+0  34090-3 0  9993
2 55825  87.8964 286.3152 0001828 109.8066 250.3261 13.14501167161652
ONEWEB-0666             
1 55826U 23029AG  26185.00220940 -.00000028  00000+0 -10118-3 0  9996
2 55826  87.9183 271.1201 0002716  92.3655 267.7790 13.20771989163379
