OBJECT_NAME,OBJECT_ID,EPOCH,MEAN_MOTION,ECCENTRICITY,INCLINATION,RA_OF_ASC_NODE,ARG_OF_PERICENTER,MEAN_ANOMALY,EPHEMERIS_TYPE,CLASSIFICATION_TYPE,NORAD_CAT_ID,ELEMENT_SET_NO,REV_AT_EPOCH,BSTAR,MEAN_MOTION_DOT,MEAN_MOTION_DDOT
ONEWEB-0534,2023-029B,2026-07-04T04:46:48.469440,13.20772662,.00019865,87.9187,271.0788,102.1913,257.9443,0,U,55797,999,16339,.3137271E-3,.141E-5,0
ONEWEB-0556,2023-029C,2026-07-04T04:56:29.589792,13.20769578,.00011655,87.9184,271.0763,95.6321,264.4945,0,U,55798,999,16339,.41420741E-4,.3E-6,0
ONEWEB-0562,2023-029D,2026-07-04T04:37:07.315392,13.20771956,.00016889,87.9183,271.0601,75.6903,284.4418,0,U,55799,999,16339,.35328988E-3,.157E-5,0
ONEWEB-0563,2023-029E,2026-07-04T04:29:50.153856,13.20773321,.00019625,87.9185,271.0916,106.4707,253.6642,0,U,55800,999,16338,.33495188E-3,.149E-5,0
ONEWEB-0564,2023-029F,2026-07-03T22:52:53.664960,13.20772241,.00019112,87.9185,271.1115,88.4376,271.6976,0,U,55801,999,16336,.6870523E-4,.41E-6,0
ONEWEB-0638,2023-029G,2026-07-04T05:09:45.182592,13.14497251,.00014839,87.8964,286.3576,91.6111,268.5189,0,U,55802,999,16163,-.20609696E-2,-.751E-5,0
ONEWEB-0639,2023-029H,2026-07-03T18:53:52.744128,13.19726021,.00021413,87.9180,301.6691,128.1259,232.0067,0,U,55803,999,16109,.16473652E-3,.79E-6,0
ONEWEB-0640,2023-029J,2026-07-04T05:23:26.340288,13.14502269,.0001316,87.8963,286.3461,107.3136,252.8138,0,U,55804,999,16165,-.2858431E-3,-.93E-6,0
ONEWEB-0641,2023-029K,2026-07-03T18:47:03.884640,13.19725910,.00019704,87.9189,301.6608,105.6178,254.5172,0,U,55805,999,16110,.15002888E-3,.73E-6,0
ONEWEB-0642,2023-029L,2026-07-03T18:40:15.464928,13.19725737,.00023123,87.9182,301.6725,121.4265,238.7094,0,U,55806,999,16109,-.4699998E-4,-.6E-7,0
ONEWEB-0643,2023-029M,2026-07-04T06:29:40.383456,13.14502416,.00024683,87.8961,286.3243,114.4959,245.6429,0,U,55807,999,16163,.92676829E-3,.356E-5,0
ONEWEB-0644,2023-029N,2026-07-04T01:50:08.221056,13.19725371,.00021137,87.9184,301.6142,109.8756,250.2605,0,U,55808,999,16113,-.13346178E-3,-.4E-6,0
ONEWEB-0645,2023-029P,2026-07-04T06:00:19.766592,13.19725810,.00017447,87.9184,301.5767,115.0543,245.0771,0,U,55809,999,16115,.18375976E-3,.87E-6,0
ONEWEB-0646,2023-029Q,2026-07-03T17:41:06.945216,13.19726336,.00021032,87.9184,301.6792,108.1788,251.9574,0,U,55810,999,16107,-.5951285E-5,.11E-6,0
ONEWEB-0648,2023-029R,2026-07-04T05:43:59.982816,13.14503245,.00019348,87.8975,286.3060,127.7227,232.4078,0,U,55811,999,16163,-.25301792E-3,-.81E-6,0
ONEWEB-0649,2023-029S,2026-07-03T18:17:29.724576,13.19725911,.0001816,87.9183,301.6718,108.1546,251.9785,0,U,55812,999,16111,.17080719E-3,.81E-6,0
ONEWEB-0650,2023-029T,2026-07-04T06:54:54.276480,13.19725585,.00021782,87.9182,301.5697,116.9735,243.1621,0,U,55813,999,16115,.3166374E-3,.14E-5,0
ONEWEB-0652,2023-029U,2026-07-03T23:47:45.821184,13.14501685,.0002045,87.8972,286.3618,95.8106,264.3257,0,U,55814,999,16157,-.24834786E-3,-.79E-6,0
ONEWEB-0653,2023-029V,2026-07-03T23:24:55.156032,13.14501321,.0001915,87.8970,286.3630,98.3532,261.7814,0,U,55815,999,16160,.35832653E-3,.146E-5,0
ONEWEB-0654,2023-029W,2026-07-03T23:18:04.099392,13.14501338,.0001957,87.8970,286.3603,90.0249,270.1105,0,U,55816,999,16162,.58907435E-3,.231E-5,0
ONEWEB-0656,2023-029X,2026-07-03T22:43:09.319296,13.20771694,.00020656,87.9195,271.0904,87.2519,272.8851,0,U,55817,999,16336,-.30169452E-3,-.11E-5,0
ONEWEB-0657,2023-029Y,2026-07-04T06:48:05.975136,13.19725747,.00025546,87.9185,301.5692,91.7491,268.3934,0,U,55818,999,16116,.26984632E-3,.121E-5,0
ONEWEB-0658,2023-029Z,2026-07-04T01:13:45.021792,13.19724801,.00021018,87.9192,301.5924,111.3397,248.7960,0,U,55819,999,16114,.12116313E-3,.61E-6,0
ONEWEB-0660,2023-029AA,2026-07-04T06:04:32.064960,13.14501880,.00017234,87.8980,286.2990,107.2146,252.9172,0,U,55820,999,16164,.45810335E-3,.183E-5,0
ONEWEB-0661,2023-029AB,2026-07-04T05:05:10.915296,13.14502101,.00016726,87.8965,286.3490,103.1910,256.9407,0,U,55821,999,16162,.20288934E-3,.88E-6,0
ONEWEB-0662,2023-029AC,2026-07-04T05:55:24.929184,13.14502451,.00017523,87.8961,286.3479,107.1826,252.9496,0,U,55822,999,16167,.33733304E-4,.25E-6,0
ONEWEB-0663,2023-029AD,2026-07-04T04:57:09.744192,13.20870744,.0001897,87.9196,271.1103,112.0467,248.0868,0,U,55823,999,16339,.2916217E-4,.25E-6,0
ONEWEB-0664,2023-029AE,2026-07-03T18:45:37.477728,13.20771438,.00015648,87.9183,271.1741,94.9617,265.1695,0,U,55824,999,16333,.20527939E-4,.21E-6,0
ONEWEB-0665,2023-029AF,2026-07-04T06:50:13.345152,13.14501167,.00018289,87.8964,286.3152,109.8066,250.3261,0,U,55825,999,16165,.34089957E-3,.139E-5,0
ONEWEB-0666,2023-029AG,2026-07-04T00:03:10.892160,13.20771989,.00027169,87.9183,271.1201,92.3655,267.7790,0,U,55826,999,16337,-.10117815E-3,-.28E-6,0
